# JPL Small-Body Database Search Engine
# Results:  200 matching objects
#
# Constraints:  PHAs and orbital class (IEO or IMB or ATE or MBA or PAA or APO or OMB or HYA or 
#                     AMO or TJN or AST or MCA) and diameter >= 0.2 (km) 
#
# Description
# -------------
# object fullname| prim. desig.| IAU name| prefix| NEO (Y/N)| PHA (Y/N)| H (absolute magnitude)| G (magnitude slope parameter (default is 0.15))|
# M1  (comet total magnitude parameter)| M2 (comet nuclear magnitude parameter)| K1 (comet total magnitude slope parameter)|
# K2 (comet nuclear magnitude slope parameter)| PC (comet nuclear magnitude law - phase coefficient)| diameter (km)|	
# extent (object bi/tri-axial ellipsoid dimensions in km)| albedo (geometric albedo)| rot_per (rotation period in hours)|
# GM (mass expressed as product mass and grav. const. G in km^3/s^2)| B-V (color index B-V in mag)| U-B (color index U-B i mag)|
# I-R (color index I-R in mag)| spec. type (spectral taxonomic type in SMASSII)| spec. type  (spectral taxonomic type in Tholen)|
# H-sigma (1-sigma uncertainty in abs. mag. param. H in mag)| diameter-sigma (1-sigma uncertainty in object diameter in km)| 	  
# orbit ID| epoch (epoch of osculation in JED)| epoch (epoch of osculation in MJD)| epoch (epoch of osculation in ET)|
# equinox (equinox of reference frame)| e (eccentricity)| a (semi-major axis in AU)| q (perihelion distance in AU)|
# i (inclinaison in deg)| node (longitude of the ascending node in deg)| peri (argument of perihelion in deg)|
# M (mean anomaly in deg)| Q (aphelion distance in AU)| n (Mean motion in deg/day)|tp (time of perihelion passage in JED)|
# tp (time of perihelion passage in ET)| period (orbital period in days)| period (orbital period in years)|
# Earth MOID (Earth Minimum Orbit Intersection Distance in AU)| Earth MOID (Earth Minimum Orbit Intersection Distance in light days)|
# Jupiter MOID (Jupiter Minimum Orbit Intersection Distance in Au)| T-Jupiter (Jupiter Tisserand Invariant)|
# e-sigma (eccentricity (1-sigma uncertainty))| a-sigma (semi-major axis (1-sigma uncertainty) in AU)|
# q-sigma (perihelion distance (1-sigma uncertainty) in AU)| i-sigma (inclination (1-sigma uncertainty) in deg)|
# node-sigma (long. of the asc. node (1-sigma uncertainty) in deg)| peri-sigma (argument of perihelion (1-sigma uncertainty) in deg)|
# M-sigma (mean anomaly (1-sigma uncertainty) in deg)|Q (1-sigma) (aphelion distance (1-sigma uncertainty) in AU)|
# n (1-sigma) (mean motion (1-sigma uncertainty in deg/day)| tp-sigma (time of peri. passage (1-sigma uncertainty) in days)|
# period-sigma (orbital period (1-sigma uncertainty) in days)| orbit class (orbit classification)|
# producer (name of person (or institution) who computed the orbit|
# data-arc span (number of days spanned by the data-arc in days)|
# date of first obs. (date of first observation used in the orbit fit in UT)|
# date of last obs. (date of last observation used in the orbit fit in UT)|
# obs. used (total) (number of observations (all types) used in fit)|
# obs. used (del.) (number of delay-radar observations used in fit)|
# obs. used (dop.) (number of Doppler-radar observations used in fit)|
# condition code (orbit condition code (MPC 'U' parameter)|
# norm. RMS of fit (normalized RMS of orbit fit in arcsec)| two-body model (2-body dynamics used flag T/F)|
# A1 (non-grav. radial parameter)| A2 (non-grav. transverse parameter)| A3 (non-grav. normal parameter)|
# DT (non-grav. peri.-maximum offset in days)
# 	  
53319 (1999 JM8)|53319|JM8||Y|Y|15.2|||||||7.|||136.|||||X:|||1.4|JPL 150|2458000.5|58000|2017-Sep-04.0|J2000|.6411275907156861|2.726144397502568|.9783380079886808|13.82874633829134|133.6457779328926|166.7695677443078|19.00934157034943|4.473950787016455|.2189680699515465|2457913.686696240434|2017-Jun-09.1866962|1644.075321482539|4.50123291302543|.0234555|9.128176935|.847692|2.987|9.7114E-9|6.0162E-9|2.6887E-8|3.3262E-6|8.1041E-6|9.9714E-6|2.4873E-6|9.8734E-9|7.2485E-10|1.1079E-5|5.4424E-6|APO|Otto Matic|9896|1990-04-27|2017-05-31|916|8|10|0|.46103||||| 
4179 Toutatis (1989 AC)|4179|Toutatis||Y|Y|15.30|0.10||||||5.4|1.70x2.03x4.26||176.|||||Sk||||JPL 499|2458000.5|58000|2017-Sep-04.0|J2000|.6293850842352817|2.536203897542407|.9399549938498295|.447431706468268|124.4046935815254|278.7114685626408|68.37708393924132|4.132452801234986|.2440213500129884|2457720.290567769575|2016-Nov-27.7905678|1475.280748921512|4.0390985596756|.00615278|2.3944773926|1.28882|3.137|7.8158E-10|1.6218E-10|1.9289E-9|1.8927E-7|3.4583E-5|3.4386E-5|4.2622E-8|2.6425E-10|2.3406E-11|1.548E-7|1.4151E-7|APO|Giorgini|30048|1934-02-10|2016-05-18|5323|29|28|0|.30812||||| 
3200 Phaethon (1983 TB)|3200|Phaethon||Y|Y|14.6|||||||5.10||0.1066|3.604|||||B|F||0.2|JPL 558|2458000.5|58000|2017-Sep-04.0|J2000|.8899364594791804|1.271198645163161|.1399126235919265|22.25319383431428|265.2306710596868|322.173626309504|261.4247211659712|2.402484666734396|.6876761175541398|2458143.845502799533|2018-Jan-25.3455028|523.5022575459118|1.43327106788751|.0194544|7.571068848|2.73612|4.511|1.6106E-8|1.7536E-9|2.0411E-8|6.9902E-6|1.2439E-5|1.1608E-5|6.0459E-6|3.3141E-9|1.4229E-9|9.028E-6|1.0832E-6|APO|Otto Matic|12164|1983-10-12|2017-01-30|3696|1|0|0|.41884||||| 
89830 (2002 CE)|89830|CE||Y|Y|14.9|||||||5.067||0.079|2.6149||||||||2.155|JPL 206|2458000.5|58000|2017-Sep-04.0|J2000|.5073762665253236|2.077376686605647|1.023365059188927|43.70062252667638|19.93382343155152|5.706153255010596|117.7919251829327|3.131388314022368|.3291782967411137|2457642.663756392568|2016-Sep-11.1637564|1093.632246001705|2.99420190554882|.0276732|10.769579244|2.33753|3.292|6.907E-8|1.0472E-8|1.431E-7|9.224E-6|1.157E-5|1.427E-5|1.191E-5|1.5786E-8|2.4892E-9|3.4122E-5|8.2698E-6|AMO|Otto Matic|12752|1982-05-25|2017-04-23|936|||0|.39653||||| 
3122 Florence (1981 ET3)|3122|Florence||Y|Y|14.1|||||||4.9||0.231|2.3581|||||S||||JPL 366|2458000.5|58000|2017-Sep-04.0|J2000|.4233004331495727|1.76913244929489|1.020257917209399|22.15078168720489|336.0951221117463|27.84698278058889|351.4385223304701|2.518006981380381|.4188548526622065|2458020.940201695441|2017-Sep-24.4402017|859.4862819706399|2.35314519362256|.0443046|17.242021182|2.98949|3.920|7.0084E-8|1.2751E-8|1.2013E-7|7.6977E-6|1.004E-5|1.2413E-5|1.3522E-5|1.8149E-8|4.5284E-9|3.2477E-5|9.2922E-6|AMO|Otto Matic|13985|1979-03-09|2017-06-22|2004|||0|.42897||||| 
4015 Wilson-Harrington (1979 VA)|4015|Wilson-Harrington||Y|Y|15.99|||||||4||0.05|3.5736||.666|.279|||CF||0.5|JPL 173|2458000.5|58000|2017-Sep-04.0|J2000|.6308146570739113|2.62801307668342|.970223908929614|2.796716644914619|266.8304618076801|95.36329195460708|299.5014643502356|4.285802244437226|.231346424111596|2458262.006249262713|2018-May-23.5062493|1556.10790779435|4.26039126021725|.0431849|16.806267533|1.21446|3.082|3.9693E-8|4.8575E-9|1.0533E-7|5.3477E-6|9.9782E-5|9.9749E-5|2.7294E-6|7.9216E-9|6.4141E-10|1.2249E-5|4.3143E-6|APO|Otto Matic|24649|1949-11-19|2017-05-15|936|||0|.5501||||| 
85713 (1998 SS49)|85713|SS49||Y|Y|15.6|||||||3.484||0.076|5.370||||||||0.789|JPL 144|2458000.5|58000|2017-Sep-04.0|J2000|.6392649526477741|1.923744600293637|.693962099480514|10.76446359534553|41.493200768447|102.4676261976115|359.7410649105019|3.153527101106759|.3693881449153772|2458001.200983756686|2017-Sep-04.7009838|974.5846068841004|2.66826723308446|.00233927|0.9103737059|1.99107|3.624|4.1458E-8|3.1585E-9|7.9902E-8|6.1575E-6|2.2486E-5|2.2699E-5|3.4531E-6|5.1777E-9|9.0973E-10|9.3489E-6|2.4002E-6|APO|Otto Matic|6593|1998-09-29|2016-10-17|535|2|0|0|.50569||||| 
1981 Midas (1973 EA)|1981|Midas||Y|Y|15.2|||||||3.4|||5.220|||||V||||JPL 119|2458000.5|58000|2017-Sep-04.0|J2000|.6502365011469357|1.775932912550235|.6211565092218833|39.83296659599127|356.89825606624|267.7963118539594|256.4805112521881|2.930709315878586|.4164513172013645|2458249.075246306059|2018-May-10.5752463|864.4467795642271|2.36672629586373|.00449133|1.7478908961|3.31302|3.612|5.5031E-8|3.8507E-9|9.7464E-8|1.0199E-5|1.0254E-5|1.0943E-5|9.3984E-6|6.3545E-9|1.3545E-9|2.3154E-5|2.8115E-6|APO|Otto Matic|15330|1973-03-06|2015-02-24|568|0|1|0|.51541||||| 
159857 (2004 LJ1)|159857|LJ1||Y|Y|15.4|||||||3.070||0.130|2.7247||||||||1.324|JPL 214|2458000.5|58000|2017-Sep-04.0|J2000|.5934628023973422|2.263731885438697|.9202912168300286|23.14001319051379|235.583420223171|139.9716898372489|286.6109500963937|3.607172554047364|.289378720315253|2458254.109006991445|2018-May-15.609007|1244.04448125215|3.40600816222355|.0168184|6.545216728|2.14696|3.275|3.0301E-8|1.0349E-8|6.8257E-8|6.0511E-6|1.1158E-5|1.2893E-5|1.0859E-5|1.6491E-8|1.9845E-9|3.9219E-5|8.5314E-6|APO|Otto Matic|8141|1995-02-03|2017-05-19|1370|||0|.38637||||| 
111253 (2001 XU10)|111253|XU10||Y|Y|15.2|||||||3.006||0.178|||||||||0.893|JPL 174|2458000.5|58000|2017-Sep-04.0|J2000|.4393811764832273|1.753700948542571|.9831577625721848|42.01973499490228|310.16532466|6.934059115491539|38.73347165137323|2.524244134512958|.424395498324489|2457909.232604836072|2017-Jun-04.7326048|848.2653596027242|2.32242398248521|.0293359|11.416652203|2.79174|3.742|1.2233E-7|1.305E-8|2.1548E-7|1.4959E-5|7.3593E-6|1.5338E-5|3.2016E-5|1.8783E-8|4.737E-9|7.484E-5|9.4682E-6|APO|Otto Matic|6354|2000-02-08|2017-07-02|720|||0|.48723||||| 
4183 Cuno (1959 LM)|4183|Cuno||Y|Y|14.4|||||||2.945||0.097|3.5595|||||Sq|||0.115|JPL 350|2458000.5|58000|2017-Sep-04.0|J2000|.6343498179170188|1.982213700330095|.7247968004530793|6.705067646835919|294.8955618648941|236.3402692831499|338.2800001004763|3.239630600207112|.3531655748123042|2458062.000897733498|2017-Nov-04.5008977|1019.351900850835|2.79083340410906|.0282524|10.994986508|1.79881|3.573|2.5321E-8|2.5064E-9|4.9668E-8|3.8597E-6|2.8786E-5|2.8913E-5|4.0598E-6|4.0963E-9|6.6983E-10|1.1571E-5|1.9333E-6|APO|Otto Matic|21036|1959-06-05|2017-01-07|1901|1|0|0|.45492||||| 
